ORBCOMM FM33            
1 25983U 99065D   25049.16405374  .00002976  00000+0  99089-3 0  9997
2 25983  45.0271 204.6535 0009761 184.0369 176.0403 14.39469017318914
ORBCOMM FM36            
1 25984U 99065E   25049.04132061  .00002589  00000+0  90207-3 0  9998
2 25984  45.0391 295.3322 0003890  57.2782 302.8441 14.37576529317270
ORBCOMM FM35            
1 25985U 99065F   25049.07718335  .00002007  00000+0  72352-3 0  9992
2 25985  45.0394 299.2797 0002959 149.5005 210.6016 14.36631709317658
ORBCOMM FM34            
1 25986U 99065G   25049.04624020  .00001985  00000+0  71557-3 0  9997
2 25986  45.0390 299.9335 0003874  93.8598 266.2693 14.36678507317762
ORBCOMM FM38            
1 33060U 08031A   25049.60214182  .00004568  00000+0  61837-3 0  9998
2 33060  48.4392 160.0678 0006435 250.1775 109.8446 14.80430389897171
ORBCOMM FM41            
1 33061U 08031B   25049.51596966  .00004196  00000+0  57538-3 0  9992
2 33061  48.4425 167.8619 0005554 237.2170 176.6055 14.80052462896657
ORBCOMM FM29            
1 33062U 08031C   25049.63428373  .00004366  00000+0  59676-3 0  9996
2 33062  48.4378 175.2350 0007295 234.9499 138.6704 14.80105070896587
ORBCOMM FM39            
1 33063U 08031D   25049.55001396  .00004044  00000+0  57243-3 0  9991
2 33063  48.4390 198.6472 0007961 209.2857 150.7612 14.78769085896233
